{"type": "FeatureCollection", "features": [ {"type": "Feature", "properties": {"norad_id": 47062, "name": "COSMOS 2251 DEB", "group": "cosmos-2251-debris", "lat": -73.08024247252617, "lon": 18.02069030745417, "alt_km": 878.7149530567694, "timestamp": "2025-12-06T22:38:43.127663+00:00", "meta": {"OBJECT_NAME": "COSMOS 2251 DEB", "OBJECT_ID": "1993-036BXS", "EPOCH": "2025-12-06T01:11:42.384768", "MEAN_MOTION": 13.71902972, "ECCENTRICITY": 0.0323491, "INCLINATION": 74.0841, "RA_OF_ASC_NODE": 89.2078, "ARG_OF_PERICENTER": 216.3558, "MEAN_ANOMALY": 323.7676, "EPHEMERIS_TYPE": 0, "CLASSIFICATION_TYPE": "U", "NORAD_CAT_ID": 47062, "ELEMENT_SET_NO": 999, "REV_AT_EPOCH": 55510, "BSTAR": 0.0032041469, "MEAN_MOTION_DOT": 4.197e-05, "MEAN_MOTION_DDOT": 0}, "tle": {"line1": "1 47062U 93036BXS 25340.04979612  .00004197  00000+0  32041-2 0  9994", "line2": "2 47062  74.0841  89.2078 0323491 216.3558 323.7676 13.71902972555102"}}, "geometry": {"type": "Point", "coordinates": [18.02069030745417, -73.08024247252617]}}, {"type": "Feature", "properties": {"norad_id": 47068, "name": "COSMOS 2251 DEB", "group": "cosmos-2251-debris", "lat": 39.291193809964895, "lon": 20.859341178020497, "alt_km": 724.7228224697492, "timestamp": "2025-12-06T22:38:43.127673+00:00", "meta": {"OBJECT_NAME": "COSMOS 2251 DEB", "OBJECT_ID": "1993-036BXY", "EPOCH": "2025-12-05T22:52:31.528416", "MEAN_MOTION": 14.53079346, "ECCENTRICITY": 0.00184568, "INCLINATION": 74.0241, "RA_OF_ASC_NODE": 216.2856, "ARG_OF_PERICENTER": 303.5943, "MEAN_ANOMALY": 56.3457, "EPHEMERIS_TYPE": 0, "CLASSIFICATION_TYPE": "U", "NORAD_CAT_ID": 47068, "ELEMENT_SET_NO": 999, "REV_AT_EPOCH": 61658, "BSTAR": 0.0015277315, "MEAN_MOTION_DOT": 6.306e-05, "MEAN_MOTION_DDOT": 0}, "tle": {"line1": "1 47068U 93036BXY 25339.95314269  .00006306  00000+0  15277-2 0  9995", "line2": "2 47068  74.0241 216.2856 0018456 303.5943  56.3457 14.53079346616584"}}, "geometry": {"type": "Point", "coordinates": [20.859341178020497, 39.291193809964895]}}, {"type": "Feature", "properties": {"norad_id": 47073, "name": "COSMOS 2251 DEB", "group": "cosmos-2251-debris", "lat": -48.7428655713645, "lon": 50.914907919055594, "alt_km": 773.0035047155106, "timestamp": "2025-12-06T22:38:43.127683+00:00", "meta": {"OBJECT_NAME": "COSMOS 2251 DEB", "OBJECT_ID": "1993-036BYD", "EPOCH": "2025-11-28T23:48:38.837952", "MEAN_MOTION": 14.04684181, "ECCENTRICITY": 0.01626495, "INCLINATION": 74.0833, "RA_OF_ASC_NODE": 225.7586, "ARG_OF_PERICENTER": 267.1836, "MEAN_ANOMALY": 91.0675, "EPHEMERIS_TYPE": 0, "CLASSIFICATION_TYPE": "U", "NORAD_CAT_ID": 47073, "ELEMENT_SET_NO": 999, "REV_AT_EPOCH": 60168, "BSTAR": 0.0003803633, "MEAN_MOTION_DOT": 6.6e-06, "MEAN_MOTION_DDOT": 0}, "tle": {"line1": "1 47073U 93036BYD 25332.99211618  .00000660  00000+0  38036-3 0  9998", "line2": "2 47073  74.0833 225.7586 0162649 267.1836  91.0675 14.04684181601680"}}, "geometry": {"type": "Point", "coordinates": [50.914907919055594, -48.7428655713645]}}, {"type": "Feature", "properties": {"norad_id": 47074, "name": "COSMOS 2251 DEB", "group": "cosmos-2251-debris", "lat": 69.63169765834704, "lon": 89.11723681741367, "alt_km": 807.022561038576, "timestamp": "2025-12-06T22:38:43.127695+00:00", "meta": {"OBJECT_NAME": "COSMOS 2251 DEB", "OBJECT_ID": "1993-036BYE", "EPOCH": "2025-12-03T18:02:52.457856", "MEAN_MOTION": 14.35498744, "ECCENTRICITY": 0.01434773, "INCLINATION": 74.091, "RA_OF_ASC_NODE": 325.1457, "ARG_OF_PERICENTER": 355.2449, "MEAN_ANOMALY": 179.085, "EPHEMERIS_TYPE": 0, "CLASSIFICATION_TYPE": "U", "NORAD_CAT_ID": 47074, "ELEMENT_SET_NO": 999, "REV_AT_EPOCH": 2553, "BSTAR": 0.0029812178, "MEAN_MOTION_DOT": 9.625e-05, "MEAN_MOTION_DDOT": 0}, "tle": {"line1": "1 47074U 93036BYE 25337.75199604  .00009625  00000+0  29812-2 0  9999", "line2": "2 47074  74.0910 325.1457 0143477 355.2449 179.0850 14.35498744 25534"}}, "geometry": {"type": "Point", "coordinates": [89.11723681741367, 69.63169765834704]}}, {"type": "Feature", "properties": {"norad_id": 47116, "name": "COSMOS 2251 DEB", "group": "cosmos-2251-debris", "lat": 73.53894203221755, "lon": -31.69826780421613, "alt_km": 569.922999591322, "timestamp": "2025-12-06T22:38:43.127705+00:00", "meta": {"OBJECT_NAME": "COSMOS 2251 DEB", "OBJECT_ID": "1993-036BYJ", "EPOCH": "2025-11-28T02:40:22.126944", "MEAN_MOTION": 14.97052334, "ECCENTRICITY": 0.00224176, "INCLINATION": 74.0247, "RA_OF_ASC_NODE": 270.3586, "ARG_OF_PERICENTER": 5.4926, "MEAN_ANOMALY": 12.2387, "EPHEMERIS_TYPE": 0, "CLASSIFICATION_TYPE": "U", "NORAD_CAT_ID": 47116, "ELEMENT_SET_NO": 999, "REV_AT_EPOCH": 59292, "BSTAR": 0.0024991708, "MEAN_MOTION_DOT": 0.00029033, "MEAN_MOTION_DDOT": 0}, "tle": {"line1": "1 47116U 93036BYJ 25332.11136721  .00029033  00000+0  24992-2 0  9991", "line2": "2 47116  74.0247 270.3586 0022417   5.4926  12.2387 14.97052334592926"}}, "geometry": {"type": "Point", "coordinates": [-31.69826780421613, 73.53894203221755]}}, {"type": "Feature", "properties": {"norad_id": 53093, "name": "COSMOS 2251 DEB", "group": "cosmos-2251-debris", "lat": 1.8718012016693901, "lon": -47.26604978257026, "alt_km": 743.031404954776, "timestamp": "2025-12-06T22:38:43.127715+00:00", "meta": {"OBJECT_NAME": "COSMOS 2251 DEB", "OBJECT_ID": "1993-036BYP", "EPOCH": "2025-12-06T07:38:57.435648", "MEAN_MOTION": 14.41821774, "ECCENTRICITY": 0.00188422, "INCLINATION": 74.0367, "RA_OF_ASC_NODE": 313.3554, "ARG_OF_PERICENTER": 31.9926, "MEAN_ANOMALY": 328.2369, "EPHEMERIS_TYPE": 0, "CLASSIFICATION_TYPE": "U", "NORAD_CAT_ID": 53093, "ELEMENT_SET_NO": 999, "REV_AT_EPOCH": 17633, "BSTAR": 0.0017318792, "MEAN_MOTION_DOT": 5.651e-05, "MEAN_MOTION_DDOT": 0}, "tle": {"line1": "1 53093U 93036BYP 25340.31872032  .00005651  00000+0  17319-2 0  9990", "line2": "2 53093  74.0367 313.3554 0018842  31.9926 328.2369 14.41821774176338"}}, "geometry": {"type": "Point", "coordinates": [-47.26604978257026, 1.8718012016693901]}}]}